FOX-1CLIFF (AO-95)      
1 43770U 18099N   24018.10958752  .00009528  00000+0  71126-3 0  9993
2 43770  97.5704  79.3386 0015103 153.8842 206.3148 15.02952595279850
ITASAT                  
1 43786U 18099AE  24018.60326019  .00006731  00000+0  51690-3 0  9997
2 43786  97.5314  80.2222 0019258 136.8469 223.4269 15.01928399279954
JY1SAT (JO-97)          
1 43803U 18099AX  24018.10988868  .00010225  00000+0  73936-3 0  9998
2 43803  97.5452  80.3468 0011781  97.3320 262.9245 15.04168148279964
UWE-4                   
1 43880U 18111E   24018.26971180  .00010538  00000+0  72596-3 0  9992
2 43880  97.6232 285.4340 0018061 156.7377 203.4671 15.05904430276696
JAISAT-1                
1 44419U 19038F   24018.51067690  .00068707  00000+0  13101-2 0  9997
2 44419  97.6847  15.0190 0007012 238.3492 121.7073 15.47905473251624
DUCHIFAT-3              
1 44854U 19089C   24017.99818615  .00015264  00000+0  89319-3 0  9993
2 44854  36.9585 243.0222 0009748 293.1303  66.8415 15.11175119225356
TIANYAN 01              
1 44881U 19093C   24018.55655164  .00001883  00000+0  23666-3 0  9994
2 44881  97.8438  98.2204 0015930  94.8737 265.4296 14.83182627220715
RS-44 & BREEZE-KM R/B   
1 44909U 19096E   24018.61324243  .00000040  00000+0  10996-3 0  9992
2 44909  82.5199 204.8004 0218083  43.4815 318.3253 12.79726058189715
BY70-2                  
1 45857U 20042B   24018.54677520  .00058244  00000+0  41530-2 0  9995
2 45857  97.9203 105.9922 0007297   1.8718 358.2533 15.04298497191749
SALSAT                  
1 46495U 20068K   24018.43075264  .00008304  00000+0  50643-3 0  9995
2 46495  97.7973 334.4409 0016294 106.0502 254.2523 15.10498020181536
RADFXSAT-2 (AO-109)     
1 47311U 21002C   24018.26723864  .00103451  00000+0  11907-2 0  9997
2 47311  60.6734 300.8652 0027784  65.1245 295.2744 15.60894277167577
UVSQ-SAT                
1 47438U 21006AB  24018.12337261  .00033539  00000+0  10095-2 0  9994
2 47438  97.3538  78.1033 0008785  44.5259 315.6688 15.34250771165488
LEDSAT                  
1 49069U 21073D   24018.15971574  .00015970  00000+0  75247-3 0  9994
2 49069  97.4579  90.8230 0022756  93.2913 267.0925 15.19357592133489
XW-3 (CAS-9)            
1 50466U 21131B   24018.56732517  .00001171  00000+0  39130-3 0  9998
2 50466  98.5383 104.3480 0003808 202.9893 157.1125 14.39307063108334
TEVEL-3                 
1 50988U 22002E   24018.47336753  .00056955  00000+0  14646-2 0  9991
2 50988  97.4049  90.4996 0005103 182.2166 177.9058 15.39060766111707
TEVEL-8                 
1 50989U 22002F   24018.56801809  .00056702  00000+0  14621-2 0  9994
2 50989  97.4066  90.6769 0005046 180.1759 179.9486 15.38977878111716
TEVEL-5                 
1 50998U 22002Q   24018.45428937  .00055735  00000+0  13566-2 0  9991
2 50998  97.4043  91.2211 0005891 175.1502 184.9802 15.40740464111752
TEVEL-6                 
1 50999U 22002R   24018.45406860  .00055634  00000+0  13554-2 0  9998
2 50999  97.4041  91.2079 0005906 174.9051 185.2256 15.40712491111752
TEVEL-1                 
1 51013U 22002AF  24018.49173894  .00057610  00000+0  14852-2 0  9996
2 51013  97.4039  90.4179 0004953 181.3086 178.8148 15.38980854111700
TEVEL-7                 
1 51062U 22002CG  24018.56429696  .00057314  00000+0  14749-2 0  9998
2 51062  97.4060  90.6435 0005063 180.6255 179.4985 15.39036990111719
TEVEL-4                 
1 51063U 22002CH  24018.45246969  .00050635  00000+0  13112-2 0  9999
2 51063  97.4059  90.4800 0005023 179.8751 180.2496 15.38877378111695
TEVEL-2                 
1 51069U 22002CP  24018.53871738  .00059991  00000+0  15406-2 0  9994
2 51069  97.4046  90.5326 0005062 181.7978 178.3250 15.39088144111712
GREENCUBE               
1 53106U 22080B   24017.99484582 -.00000003  00000+0  00000+0 0  9992
2 53106  70.1336 245.0570 0008291 138.2840 221.8452  6.42557672 35552
CYCLOPS (RS29S)         
1 53373U 22096D   24018.10344433  .00221282  00000+0  16832-2 0  9995
2 53373  97.3947 295.3960 0005564  99.2458 260.9435 15.71605110 80995
MONITOR-1 (RS32S)       
1 53374U 22096E   24018.60368276  .00170816  00000+0  15929-2 0  9994
2 53374  97.3892 295.0177 0005774  97.3708 262.8209 15.66777486 81027
KUZBASS-300 (RS34S)     
1 53375U 22096F   24018.59619906  .00085965  00000+0  12808-2 0  9995
2 53375  97.3981 293.2231 0004579  88.5892 271.5887 15.54801415 80896
UTMN (RS23S)            
1 53376U 22096G   24018.58870491  .00096191  00000+0  13102-2 0  9994
2 53376  97.3961 293.6585 0004508  94.6407 265.5363 15.57204668 80929
MIET-AIS (RS28S)        
1 53377U 22096H   24018.57255288  .00069407  00000+0  11297-2 0  9998
2 53377  97.4001 292.8382 0003820  88.2294 271.9396 15.52419531 80863
KAI-1 (RS26S)           
1 53378U 22096J   24018.57484188  .00051120  00000+0  97867-3 0  9993
2 53378  97.4038 291.8383 0003781  87.8817 272.2866 15.47885856 80795
ISOI (RS19S)            
1 53381U 22096M   24018.56931639  .00067179  00000+0  10427-2 0  9991
2 53381  97.4018 293.4200 0003592  63.2458 296.9162 15.53751526 80900
CUBESX-HSE-2 (RS21S)    
1 53383U 22096P   24018.55355725  .00092226  00000+0  12742-2 0  9991
2 53383  97.3972 293.8805 0004028  58.4397 301.7251 15.56836915 80934
SIREN (RS30S)           
1 53384U 22096Q   24018.54916838  .00056844  00000+0  98358-3 0  9993
2 53384  97.4013 292.7347 0003660  53.7203 306.4386 15.50752424 80854
GEOSCAN-EDELVEIS (RS20S)
1 53385U 22096R   24018.46646934  .00293021  00000+0  16319-2 0  9998
2 53385  97.3908 297.1426 0004776  73.2322 286.9468 15.78634423 81179
CAS-5A (FO-118)         
1 54684U 22167C   24018.52937862  .00025022  00000+0  11135-2 0  9995
2 54684  97.5842 161.0759 0011421 314.6035  45.4267 15.21408457 61332
STRATOSAT-TK 1 (RS52S)  
1 57167U 23091B   24018.57379725  .00014560  00000+0  95913-3 0  9996
2 57167  97.6360  72.4628 0015530 275.1474  84.7981 15.07519557 30838
UMKA 1 (RS40S)          
1 57172U 23091G   24018.55222385  .00006780  00000+0  47486-3 0  9996
2 57172  97.6371  72.1832 0016115 275.3900  84.5488 15.05455499 30816
CUBESX-HSE 3 (RS42S)    
1 57178U 23091N   24018.60018418  .00008927  00000+0  61453-3 0  9993
2 57178  97.6408  72.3729 0016474 269.2834  90.6506 15.06004637 30821
MONITOR-4 (RS57S)       
1 57182U 23091S   24018.55232470  .00008507  00000+0  58970-3 0  9992
2 57182  97.6396  72.2518 0017178 270.6547  89.2711 15.05749268 30812
MONITOR-2 (RS39S)       
1 57184U 23091U   24018.60911046  .00005759  00000+0  40004-3 0  9998
2 57184  97.6404  72.4959 0013016 263.3243  96.6503 15.05870704 30837
SVYATOBOR 1 (RS60S)     
1 57187U 23091X   24018.61338196  .00008135  00000+0  55099-3 0  9992
2 57187  97.6405  72.6467 0012775 261.1105  98.8676 15.06680913 30849
VIZARD-METEO (RS38S)    
1 57189U 23091Z   24018.60902398  .00009566  00000+0  63340-3 0  9991
2 57189  97.6397  72.7862 0011663 258.8934 101.0982 15.07481713 30855
NANOZOND 1 (RS49S)      
1 57190U 23091AA  24018.59171857  .00012726  00000+0  81408-3 0  9996
2 57190  97.6368  72.8920 0010293 265.1538  94.8515 15.08689514 30862
POLYTECH-UNIVERSE 3 (R*)
1 57191U 23091AB  24018.60257796  .00005819  00000+0  40508-3 0  9997
2 57191  97.6369  72.2654 0018529 282.1326  77.7825 15.05713041 30826
UTMN 2 (RS27S)          
1 57203U 23091AP  24018.56356867  .00009602  00000+0  64033-3 0  9998
2 57203  97.6389  72.6912 0012373 259.7471 100.2362 15.07212285 30841
ARCCUBE 1 (RS25S)       
1 57205U 23091AR  24018.57429609  .00015183  00000+0  95959-3 0  9998
2 57205  97.6339  72.8674 0010835 267.4059  92.5929 15.09086404 30862
KUZGTU 1 (RS47S)        
1 57217U 23091AV  24018.40018620  .00008322  00000+0  57413-3 0  9990
2 57217  97.6384  72.1110 0016358 271.5306  88.4047 15.05948208 30792
HADES-D (SO-121)        
1 58567U 23174CY  24018.39851957  .00031795  00000+0  16272-2 0  9994
2 58567  97.4747  95.2312 0015678  39.9266 320.3117 15.16448890 10841
CUTE-1 (CO-55)          
1 27844U 03031E   24018.56483914  .00000725  00000+0  34111-3 0  9993
2 27844  98.6789  27.7063 0009096 216.7487 143.3068 14.23041579 66360
CUBESAT XI-IV (CO-57)   
1 27848U 03031J   24018.58223220  .00000625  00000+0  29963-3 0  9999
2 27848  98.6822  28.0470 0008789 233.5985 126.4383 14.22515450 66125
CUBESAT XI-V            
1 28895U 05043F   24018.32045583  .00003261  00000+0  59279-3 0  9995
2 28895  98.1779 154.2670 0017116 112.6807 247.6208 14.66738260972337
CUTE-1.7+APD II (CO-65) 
1 32785U 08021C   24018.55272030  .00006517  00000+0  60659-3 0  9992
2 32785  97.7358 345.5800 0013084 105.0319 255.2350 14.94574452852963
AAUSAT-II               
1 32788U 08021F   24018.45267178  .00019130  00000+0  11700-2 0  9998
2 32788  97.5825 359.2550 0006262 359.9048   0.2179 15.10266654855529
SEEDS II (CO-66)        
1 32791U 08021J   24018.44235233  .00010666  00000+0  85432-3 0  9997
2 32791  97.6792 351.0077 0009732  65.5882 294.6356 15.00291396853896
SWISSCUBE               
1 35932U 09051B   24018.60405924  .00002198  00000+0  48402-3 0  9992
2 35932  98.4921 258.7940 0008509  65.5678 294.6407 14.58444050760607
BEESAT-1                
1 35933U 09051C   24018.58565650  .00001880  00000+0  41727-3 0  9993
2 35933  98.4848 259.8699 0006850  77.0441 283.1522 14.58260198760679
ITUPSAT1                
1 35935U 09051E   24018.63222446  .00001779  00000+0  40394-3 0  9990
2 35935  98.4952 259.7755 0009123  81.3948 278.8283 14.57260760760337
TISAT 1                 
1 36799U 10035E   24018.60919751  .00010278  00000+0  84312-3 0  9994
2 36799  98.1055 261.7360 0008757 352.5033   7.6056 14.99408570734473
M-CUBED & EXP-1 PRIME   
1 37855U 11061F   24018.20765210  .00063834  00000+0  12352-2 0  9993
2 37855 101.6885 109.4022 0082645  93.8285 267.2402 15.43794622669521
